{"type": "FeatureCollection", "features": [ {"type": "Feature", "properties": {"norad_id": 38055, "name": "COSMOS 2251 DEB", "group": "cosmos-2251-debris", "lat": -71.39795187964911, "lon": 124.34720845949487, "alt_km": 604.4417170304423, "timestamp": "2025-12-24T22:42:22.432177+00:00", "meta": {"OBJECT_NAME": "COSMOS 2251 DEB", "OBJECT_ID": "1993-036BRM", "EPOCH": "2025-12-23T19:29:54.305376", "MEAN_MOTION": 14.77082596, "ECCENTRICITY": 0.00661115, "INCLINATION": 74.0078, "RA_OF_ASC_NODE": 185.0116, "ARG_OF_PERICENTER": 310.2011, "MEAN_ANOMALY": 64.0463, "EPHEMERIS_TYPE": 0, "CLASSIFICATION_TYPE": "U", "NORAD_CAT_ID": 38055, "ELEMENT_SET_NO": 999, "REV_AT_EPOCH": 60846, "BSTAR": 0.00072215259, "MEAN_MOTION_DOT": 5.255e-05, "MEAN_MOTION_DDOT": 0}, "tle": {"line1": "1 38055U 93036BRM 25357.81243409  .00005255  00000+0  72215-3 0  9991", "line2": "2 38055  74.0078 185.0116 0066111 310.2011  64.0463 14.77082596608460"}}, "geometry": {"type": "Point", "coordinates": [124.34720845949487, -71.39795187964911]}}, {"type": "Feature", "properties": {"norad_id": 38060, "name": "COSMOS 2251 DEB", "group": "cosmos-2251-debris", "lat": -66.84759013459988, "lon": -130.11992073392315, "alt_km": 685.5360185644367, "timestamp": "2025-12-24T22:42:22.432187+00:00", "meta": {"OBJECT_NAME": "COSMOS 2251 DEB", "OBJECT_ID": "1993-036BRS", "EPOCH": "2025-12-22T11:59:35.078784", "MEAN_MOTION": 14.63909743, "ECCENTRICITY": 0.00586084, "INCLINATION": 74.043, "RA_OF_ASC_NODE": 276.5721, "ARG_OF_PERICENTER": 20.0647, "MEAN_ANOMALY": 340.2805, "EPHEMERIS_TYPE": 0, "CLASSIFICATION_TYPE": "U", "NORAD_CAT_ID": 38060, "ELEMENT_SET_NO": 999, "REV_AT_EPOCH": 72107, "BSTAR": 0.00053329406, "MEAN_MOTION_DOT": 2.829e-05, "MEAN_MOTION_DDOT": 0}, "tle": {"line1": "1 38060U 93036BRS 25356.49971156  .00002829  00000+0  53329-3 0  9996", "line2": "2 38060  74.0430 276.5721 0058608  20.0647 340.2805 14.63909743721078"}}, "geometry": {"type": "Point", "coordinates": [-130.11992073392315, -66.84759013459988]}}, {"type": "Feature", "properties": {"norad_id": 38062, "name": "COSMOS 2251 DEB", "group": "cosmos-2251-debris", "lat": -7.501626915885933, "lon": 87.97454118870547, "alt_km": 593.0542853111747, "timestamp": "2025-12-24T22:42:22.432198+00:00", "meta": {"OBJECT_NAME": "COSMOS 2251 DEB", "OBJECT_ID": "1993-036BRU", "EPOCH": "2025-12-20T12:40:12.328608", "MEAN_MOTION": 14.95206267, "ECCENTRICITY": 0.00129431, "INCLINATION": 74.0088, "RA_OF_ASC_NODE": 274.7346, "ARG_OF_PERICENTER": 42.7602, "MEAN_ANOMALY": 131.9089, "EPHEMERIS_TYPE": 0, "CLASSIFICATION_TYPE": "U", "NORAD_CAT_ID": 38062, "ELEMENT_SET_NO": 999, "REV_AT_EPOCH": 63146, "BSTAR": 0.0014745207, "MEAN_MOTION_DOT": 0.00016237, "MEAN_MOTION_DDOT": 0}, "tle": {"line1": "1 38062U 93036BRU 25354.52792047  .00016237  00000+0  14745-2 0  9996", "line2": "2 38062  74.0088 274.7346 0012943  42.7602 131.9089 14.95206267631464"}}, "geometry": {"type": "Point", "coordinates": [87.97454118870547, -7.501626915885933]}}, {"type": "Feature", "properties": {"norad_id": 38064, "name": "COSMOS 2251 DEB", "group": "cosmos-2251-debris", "lat": -22.462171012777514, "lon": -72.23523069186102, "alt_km": 677.6667223482718, "timestamp": "2025-12-24T22:42:22.432208+00:00", "meta": {"OBJECT_NAME": "COSMOS 2251 DEB", "OBJECT_ID": "1993-036BRW", "EPOCH": "2025-12-24T00:20:31.022880", "MEAN_MOTION": 14.5638999, "ECCENTRICITY": 0.00470717, "INCLINATION": 74.023, "RA_OF_ASC_NODE": 102.7307, "ARG_OF_PERICENTER": 220.4178, "MEAN_ANOMALY": 139.3486, "EPHEMERIS_TYPE": 0, "CLASSIFICATION_TYPE": "U", "NORAD_CAT_ID": 38064, "ELEMENT_SET_NO": 999, "REV_AT_EPOCH": 72029, "BSTAR": 0.0010077447, "MEAN_MOTION_DOT": 4.512e-05, "MEAN_MOTION_DDOT": 0}, "tle": {"line1": "1 38064U 93036BRW 25358.01424795  .00004512  00000+0  10077-2 0  9995", "line2": "2 38064  74.0230 102.7307 0047071 220.4178 139.3486 14.56389990720290"}}, "geometry": {"type": "Point", "coordinates": [-72.23523069186102, -22.462171012777514]}}, {"type": "Feature", "properties": {"norad_id": 38067, "name": "COSMOS 2251 DEB", "group": "cosmos-2251-debris", "lat": 32.77996502917288, "lon": -98.22332493518975, "alt_km": 637.6853078757686, "timestamp": "2025-12-24T22:42:22.432223+00:00", "meta": {"OBJECT_NAME": "COSMOS 2251 DEB", "OBJECT_ID": "1993-036BRZ", "EPOCH": "2025-12-23T23:37:20.127936", "MEAN_MOTION": 14.61165668, "ECCENTRICITY": 0.0069893, "INCLINATION": 74.016, "RA_OF_ASC_NODE": 252.9804, "ARG_OF_PERICENTER": 37.5842, "MEAN_ANOMALY": 339.4482, "EPHEMERIS_TYPE": 0, "CLASSIFICATION_TYPE": "U", "NORAD_CAT_ID": 38067, "ELEMENT_SET_NO": 999, "REV_AT_EPOCH": 62720, "BSTAR": 0.00036242, "MEAN_MOTION_DOT": 1.816e-05, "MEAN_MOTION_DDOT": 0}, "tle": {"line1": "1 38067U 93036BRZ 25357.98426074  .00001816  00000+0  36242-3 0  9992", "line2": "2 38067  74.0160 252.9804 0069893  37.5842 339.4482 14.61165668627202"}}, "geometry": {"type": "Point", "coordinates": [-98.22332493518975, 32.77996502917288]}}, {"type": "Feature", "properties": {"norad_id": 38068, "name": "COSMOS 2251 DEB", "group": "cosmos-2251-debris", "lat": 43.507251650670206, "lon": 90.05122058588472, "alt_km": 776.8549700641142, "timestamp": "2025-12-24T22:42:22.432234+00:00", "meta": {"OBJECT_NAME": "COSMOS 2251 DEB", "OBJECT_ID": "1993-036BSA", "EPOCH": "2025-11-26T00:12:22.263264", "MEAN_MOTION": 14.35960004, "ECCENTRICITY": 0.00240903, "INCLINATION": 74.0219, "RA_OF_ASC_NODE": 338.9788, "ARG_OF_PERICENTER": 72.1007, "MEAN_ANOMALY": 288.2769, "EPHEMERIS_TYPE": 0, "CLASSIFICATION_TYPE": "U", "NORAD_CAT_ID": 38068, "ELEMENT_SET_NO": 999, "REV_AT_EPOCH": 66406, "BSTAR": 0.00028750999, "MEAN_MOTION_DOT": 8.11e-06, "MEAN_MOTION_DDOT": 0}, "tle": {"line1": "1 38068U 93036BSA 25330.00859101  .00000811  00000+0  28751-3 0  9998", "line2": "2 38068  74.0219 338.9788 0024090  72.1007 288.2769 14.35960004664064"}}, "geometry": {"type": "Point", "coordinates": [90.05122058588472, 43.507251650670206]}}, {"type": "Feature", "properties": {"norad_id": 38197, "name": "COSMOS 2251 DEB", "group": "cosmos-2251-debris", "lat": 5.463879267465711, "lon": -25.352175647557456, "alt_km": 729.5957772645907, "timestamp": "2025-12-24T22:42:22.432244+00:00", "meta": {"OBJECT_NAME": "COSMOS 2251 DEB", "OBJECT_ID": "1993-036BSM", "EPOCH": "2025-12-22T15:18:58.604256", "MEAN_MOTION": 14.74460834, "ECCENTRICITY": 0.01247811, "INCLINATION": 73.938, "RA_OF_ASC_NODE": 337.6017, "ARG_OF_PERICENTER": 212.6548, "MEAN_ANOMALY": 146.6868, "EPHEMERIS_TYPE": 0, "CLASSIFICATION_TYPE": "U", "NORAD_CAT_ID": 38197, "ELEMENT_SET_NO": 999, "REV_AT_EPOCH": 85901, "BSTAR": 0.0030808591, "MEAN_MOTION_DOT": 0.00023252, "MEAN_MOTION_DDOT": 0}, "tle": {"line1": "1 38197U 93036BSM 25356.63817829  .00023252  00000+0  30809-2 0  9999", "line2": "2 38197  73.9380 337.6017 0124781 212.6548 146.6868 14.74460834859011"}}, "geometry": {"type": "Point", "coordinates": [-25.352175647557456, 5.463879267465711]}}, {"type": "Feature", "properties": {"norad_id": 38199, "name": "COSMOS 2251 DEB", "group": "cosmos-2251-debris", "lat": 29.44492649847988, "lon": 51.48268005855806, "alt_km": 891.0539978856077, "timestamp": "2025-12-24T22:42:22.432254+00:00", "meta": {"OBJECT_NAME": "COSMOS 2251 DEB", "OBJECT_ID": "1993-036BSP", "EPOCH": "2025-12-23T11:22:51.988512", "MEAN_MOTION": 13.64808888, "ECCENTRICITY": 0.03701637, "INCLINATION": 73.9557, "RA_OF_ASC_NODE": 44.5515, "ARG_OF_PERICENTER": 328.9029, "MEAN_ANOMALY": 29.0633, "EPHEMERIS_TYPE": 0, "CLASSIFICATION_TYPE": "U", "NORAD_CAT_ID": 38199, "ELEMENT_SET_NO": 999, "REV_AT_EPOCH": 61168, "BSTAR": 0.00059794488, "MEAN_MOTION_DOT": 7.45e-06, "MEAN_MOTION_DDOT": 0}, "tle": {"line1": "1 38199U 93036BSP 25357.47421283  .00000745  00000+0  59794-3 0  9996", "line2": "2 38199  73.9557  44.5515 0370163 328.9029  29.0633 13.64808888611684"}}, "geometry": {"type": "Point", "coordinates": [51.48268005855806, 29.44492649847988]}}, {"type": "Feature", "properties": {"norad_id": 38208, "name": "COSMOS 2251 DEB", "group": "cosmos-2251-debris", "lat": 23.377252884685333, "lon": 61.791258857775, "alt_km": 614.9859676730175, "timestamp": "2025-12-24T22:42:22.432264+00:00", "meta": {"OBJECT_NAME": "COSMOS 2251 DEB", "OBJECT_ID": "1993-036BSY", "EPOCH": "2025-12-22T10:48:57.448224", "MEAN_MOTION": 14.84216991, "ECCENTRICITY": 8.867e-05, "INCLINATION": 74.0048, "RA_OF_ASC_NODE": 59.6241, "ARG_OF_PERICENTER": 125.3536, "MEAN_ANOMALY": 250.7467, "EPHEMERIS_TYPE": 0, "CLASSIFICATION_TYPE": "U", "NORAD_CAT_ID": 38208, "ELEMENT_SET_NO": 999, "REV_AT_EPOCH": 71303, "BSTAR": 0.0024430964, "MEAN_MOTION_DOT": 0.00020478, "MEAN_MOTION_DDOT": 0}, "tle": {"line1": "1 38208U 93036BSY 25356.45066491  .00020478  00000+0  24431-2 0  9994", "line2": "2 38208  74.0048  59.6241 0000886 125.3536 250.7467 14.84216991713030"}}, "geometry": {"type": "Point", "coordinates": [61.791258857775, 23.377252884685333]}}, {"type": "Feature", "properties": {"norad_id": 38212, "name": "COSMOS 2251 DEB", "group": "cosmos-2251-debris", "lat": 50.48479492433096, "lon": 72.95291939922791, "alt_km": 601.5120552551653, "timestamp": "2025-12-24T22:42:22.432274+00:00", "meta": {"OBJECT_NAME": "COSMOS 2251 DEB", "OBJECT_ID": "1993-036BTC", "EPOCH": "2025-12-19T04:21:29.490912", "MEAN_MOTION": 14.77722254, "ECCENTRICITY": 0.0092064, "INCLINATION": 74.0528, "RA_OF_ASC_NODE": 63.9673, "ARG_OF_PERICENTER": 129.0689, "MEAN_ANOMALY": 231.8724, "EPHEMERIS_TYPE": 0, "CLASSIFICATION_TYPE": "U", "NORAD_CAT_ID": 38212, "ELEMENT_SET_NO": 999, "REV_AT_EPOCH": 81405, "BSTAR": 0.00027193732, "MEAN_MOTION_DOT": 2.056e-05, "MEAN_MOTION_DDOT": 0}, "tle": {"line1": "1 38212U 93036BTC 25353.18159133  .00002056  00000+0  27194-3 0  9994", "line2": "2 38212  74.0528  63.9673 0092064 129.0689 231.8724 14.77722254814050"}}, "geometry": {"type": "Point", "coordinates": [72.95291939922791, 50.48479492433096]}}]}